NORAD_CAT_ID,OBJECT_NAME,OBJECT_TYPE,EPOCH,MEAN_MOTION,ECCENTRICITY,INCLINATION,RA_OF_ASC_NODE,ARG_OF_PERICENTER,MEAN_ANOMALY,BSTAR,MEAN_MOTION_DOT,MEAN_MOTION_DDOT,TLE_LINE0,TLE_LINE1,TLE_LINE2,SEMIMAJOR_AXIS,PERIOD,APOGEE,PERIGEE,DECAYED
52687.0,STARLINK-3981,PAYLOAD,2023-04-09 18:48:26,15.0884744,0.0001188,53.218,244.6665,76.7895,283.323,0.000202,2.929e-05,0.0,0 STARLINK-3981,1 52687U 22053AH  23099.78363601  .00002929  00000-0  20200-3 0  9996,2 52687  53.2180 244.6665 0001188  76.7895 283.3230 15.08847440 49984,6917.858,95.437,540.544,538.901,0.0
52687.0,STARLINK-3981,PAYLOAD,2023-04-10 02:45:22,15.0883992,0.0001281,53.2173,243.1789,77.5549,282.5587,0.00014567,2.031e-05,0.0,0 STARLINK-3981,1 52687U 22053AH  23100.11483955  .00002031  00000-0  14567-3 0  9994,2 52687  53.2173 243.1789 0001281  77.5549 282.5587 15.08839920 50034,6917.881,95.438,540.632,538.859,0.0
52687.0,STARLINK-3981,PAYLOAD,2023-04-10 09:06:54,15.08840038,0.000149,53.2178,241.9901,82.3434,277.7727,0.00023489,3.452e-05,0.0,0 STARLINK-3981,1 52687U 22053AH  23100.37980195  .00003452  00000-0  23489-3 0  9991,2 52687  53.2178 241.9901 0001490  82.3434 277.7727 15.08840038 50449,6917.88,95.438,540.776,538.715,0.0
52687.0,STARLINK-3981,PAYLOAD,2023-04-11 08:57:41,15.08832711,8.2e-05,53.2171,237.5294,84.0615,276.0471,-0.00014479,-2.591e-05,0.0,0 STARLINK-3981,1 52687U 22053AH  23101.37339713 -.00002591  00000-0 -14479-3 0  9990,2 52687  53.2171 237.5294 0000820  84.0615 276.0471 15.08832711 50227,6917.903,95.438,540.335,539.2,0.0
52687.0,STARLINK-3981,PAYLOAD,2023-04-12 11:59:14,15.08842332,0.0001513,53.2153,232.4745,91.1578,268.9587,6.5959e-05,7.62e-06,0.0,0 STARLINK-3981,1 52687U 22053AH  23102.49947517  .00000762  00000-0  65959-4 0  9997,2 52687  53.2153 232.4745 0001513  91.1578 268.9587 15.08842332 50766,6917.873,95.437,540.785,538.692,0.0
52687.0,STARLINK-3981,PAYLOAD,2023-04-13 08:39:15,15.08834023,0.0001113,53.2155,228.6087,83.011,277.1009,8.4707e-05,1.06e-05,0.0,0 STARLINK-3981,1 52687U 22053AH  23103.36060018  .00001060  00000-0  84707-4 0  9990,2 52687  53.2155 228.6087 0001113  83.0110 277.1009 15.08834023 50895,6917.899,95.438,540.534,538.994,0.0
52687.0,STARLINK-3981,PAYLOAD,2023-04-14 11:40:49,15.08836223,0.0001379,53.2135,223.5542,97.2792,262.8356,7.4201e-05,8.93e-06,0.0,0 STARLINK-3981,1 52687U 22053AH  23104.48668003  .00000893  00000-0  74201-4 0  9993,2 52687  53.2135 223.5542 0001379  97.2792 262.8356 15.08836223 50698,6917.892,95.438,540.711,538.803,0.0
52687.0,STARLINK-3981,PAYLOAD,2023-04-15 00:23:53,15.08846505,0.0001396,53.2136,221.1752,93.3698,266.7454,0.00023487,3.453e-05,0.0,0 STARLINK-3981,1 52687U 22053AH  23105.01659605  .00003453  00000-0  23487-3 0  9995,2 52687  53.2136 221.1752 0001396  93.3698 266.7454 15.08846505 50772,6917.861,95.437,540.691,538.76,0.0
52687.0,STARLINK-3981,PAYLOAD,2023-04-15 13:06:59,15.0884631,0.0001541,53.2185,218.8003,108.1022,252.0138,0.0001956,2.827e-05,0.0,0 STARLINK-3981,1 52687U 22053AH  23105.54651856  .00002827  00000-0  19560-3 0  9994,2 52687  53.2185 218.8003 0001541 108.1022 252.0138 15.08846310 51228,6917.861,95.437,540.792,538.66,0.0
52687.0,STARLINK-3981,PAYLOAD,2023-04-15 17:53:08,15.08854368,0.0001119,53.2159,217.9035,94.5891,265.5229,0.00038511,5.849e-05,0.0,0 STARLINK-3981,1 52687U 22053AH  23105.74523329  .00005849  00000-0  38511-3 0  9993,2 52687  53.2159 217.9035 0001119  94.5891 265.5229 15.08854368 51252,6917.836,95.437,540.476,538.927,0.0
52687.0,STARLINK-3981,PAYLOAD,2023-04-16 00:14:40,15.08842352,9.5e-05,53.2153,216.7141,101.8538,258.2561,0.00015082,2.114e-05,0.0,0 STARLINK-3981,1 52687U 22053AH  23106.01019583  .00002114  00000-0  15082-3 0  9996,2 52687  53.2153 216.7141 0000950 101.8538 258.2561 15.08842352 50924,6917.873,95.437,540.395,539.081,0.0
52687.0,STARLINK-3981,PAYLOAD,2023-04-16 12:57:46,15.08846258,0.0001339,53.2151,214.3355,101.3948,258.7194,0.00024846,3.669e-05,0.0,0 STARLINK-3981,1 52687U 22053AH  23106.54011580  .00003669  00000-0  24846-3 0  9997,2 52687  53.2151 214.3355 0001339 101.3948 258.7194 15.08846258 51371,6917.861,95.437,540.653,538.8,0.0
52687.0,STARLINK-3981,PAYLOAD,2023-04-16 16:08:31,15.08857446,0.0001219,53.2161,213.7395,117.8543,242.2573,0.00054096,8.336e-05,0.0,0 STARLINK-3981,1 52687U 22053AH  23106.67259075  .00008336  00000-0  54096-3 0  9990,2 52687  53.2161 213.7395 0001219 117.8543 242.2573 15.08857446 51021,6917.827,95.436,540.535,538.849,0.0
52687.0,STARLINK-3981,PAYLOAD,2023-04-17 12:48:33,15.08844041,0.0001194,53.2158,209.8749,98.7082,261.4045,0.00058869,9.095e-05,0.0,0 STARLINK-3981,1 52687U 22053AH  23107.53372010  .00009095  00000-0  58869-3 0  9996,2 52687  53.2158 209.8749 0001194  98.7082 261.4045 15.08844041 51151,6917.868,95.437,540.559,538.907,0.0
52687.0,STARLINK-3981,PAYLOAD,2023-04-17 15:59:19,15.08846162,0.0001251,53.2158,209.2805,94.3929,265.7206,0.0012156,0.00019114,0.0,0 STARLINK-3981,1 52687U 22053AH  23107.66620057  .00019114  00000-0  12156-2 0  9998,2 52687  53.2158 209.2805 0001251  94.3929 265.7206 15.08846162 51549,6917.862,95.437,540.592,538.861,0.0
52687.0,STARLINK-3981,PAYLOAD,2023-04-18 09:28:34,15.08842325,0.0001351,53.2169,206.0102,106.2563,253.8578,0.0012418,0.00019532,0.0,0 STARLINK-3981,1 52687U 22053AH  23108.39484424  .00019532  00000-0  12418-2 0  9990,2 52687  53.2169 206.0102 0001351 106.2563 253.8578 15.08842325 51653,6917.873,95.437,540.673,538.804,0.0
52687.0,STARLINK-3981,PAYLOAD,2023-04-18 15:50:07,15.08853276,0.0001344,53.2165,204.8192,100.4677,259.6466,0.00151,0.00023834,0.0,0 STARLINK-3981,1 52687U 22053AH  23108.65980329  .00023834  00000-0  15100-2 0  9995,2 52687  53.2165 204.8192 0001344 100.4677 259.6466 15.08853276 51699,6917.84,95.437,540.635,538.775,0.0
52687.0,STARLINK-3981,PAYLOAD,2023-04-19 06:08:35,15.08839886,0.0001447,53.2166,202.1432,96.9143,263.2014,0.00082474,0.00012862,0.0,0 STARLINK-3981,1 52687U 22053AH  23109.25596716  .00012862  00000-0  82474-3 0  9993,2 52687  53.2166 202.1432 0001447  96.9143 263.2014 15.08839886 51780,6917.881,95.438,540.747,538.745,0.0
52687.0,STARLINK-3981,PAYLOAD,2023-04-19 17:16:17,15.08856798,0.0001362,53.2165,200.06,86.7196,273.3952,0.0013856,0.00021843,0.0,0 STARLINK-3981,1 52687U 22053AH  23109.71964665  .00021843  00000-0  13856-2 0  9992,2 52687  53.2165 200.0600 0001362  86.7196 273.3952 15.08856798 51856,6917.829,95.436,540.636,538.752,0.0
52687.0,STARLINK-3981,PAYLOAD,2023-04-20 09:10:09,15.08848193,0.0001556,53.2163,197.0894,68.3683,291.7474,0.0010399,0.00016304,0.0,0 STARLINK-3981,1 52687U 22053AH  23110.38204950  .00016304  00000-0  10399-2 0  9996,2 52687  53.2163 197.0894 0001556  68.3683 291.7474 15.08848193 51950,6917.855,95.437,540.797,538.644,0.0
52687.0,STARLINK-3981,PAYLOAD,2023-04-20 17:07:04,15.08864109,0.0001644,53.2162,195.6016,71.8333,288.2838,0.0014225,0.00022439,0.0,0 STARLINK-3981,1 52687U 22053AH  23110.71324526  .00022439  00000-0  14225-2 0  9993,2 52687  53.2162 195.6016 0001644  71.8333 288.2838 15.08864109 51633,6917.807,95.436,540.809,538.534,0.0
52687.0,STARLINK-3981,PAYLOAD,2023-04-21 12:11:42,15.08841405,0.0001575,53.216,192.0334,82.1443,277.9728,0.0012469,0.00019613,0.0,0 STARLINK-3981,1 52687U 22053AH  23111.50813107  .00019613  00000-0  12469-2 0  9997,2 52687  53.2160 192.0334 0001575  82.1443 277.9728 15.08841405 52127,6917.876,95.437,540.831,538.652,0.0
52687.0,STARLINK-3981,PAYLOAD,2023-04-21 15:22:28,15.08845716,0.0001478,53.2162,191.4391,79.4012,280.7147,0.0013866,0.00021852,0.0,0 STARLINK-3981,1 52687U 22053AH  23111.64061099  .00021852  00000-0  13866-2 0  9997,2 52687  53.2162 191.4391 0001478  79.4012 280.7147 15.08845716 52146,6917.863,95.437,540.75,538.705,0.0
52687.0,STARLINK-3981,PAYLOAD,2023-04-22 05:40:57,15.08845927,0.0001617,53.2155,188.7635,84.9642,275.1535,0.00057908,8.942e-05,0.0,0 STARLINK-3981,1 52687U 22053AH  23112.23677104  .00008942  00000-0  57908-3 0  9994,2 52687  53.2155 188.7635 0001617  84.9642 275.1535 15.08845927 51864,6917.862,95.437,540.846,538.609,0.0
52687.0,STARLINK-3981,PAYLOAD,2023-04-22 16:48:38,15.08867504,0.0001645,53.2152,186.6814,84.7716,275.3464,0.00097176,0.00015223,0.0,0 STARLINK-3981,1 52687U 22053AH  23112.70044338  .00015223  00000-0  97176-3 0  9994,2 52687  53.2152 186.6814 0001645  84.7716 275.3464 15.08867504 51934,6917.796,95.436,540.799,538.523,0.0
52687.0,STARLINK-3981,PAYLOAD,2023-04-22 21:34:47,15.08835212,8.82e-05,53.2159,185.7898,119.3691,240.7389,-0.00048198,-7.949e-05,0.0,0 STARLINK-3981,1 52687U 22053AH  23112.89916394 -.00007949  00000-0 -48198-3 0  9992,2 52687  53.2159 185.7898 0000882 119.3691 240.7389 15.08835212 52330,6917.895,95.438,540.37,539.15,0.0
52687.0,STARLINK-3981,PAYLOAD,2023-04-23 13:28:38,15.08843958,7.04e-05,53.2156,182.8169,192.7124,167.3851,0.00021762,3.178e-05,0.0,0 STARLINK-3981,1 52687U 22053AH  23113.56156070  .00003178  00000-0  21762-3 0  9990,2 52687  53.2156 182.8169 0000704 192.7124 167.3851 15.08843958 52430,6917.868,95.437,540.22,539.246,0.0
52687.0,STARLINK-3981,PAYLOAD,2023-04-23 15:04:02,15.08846419,9.12e-05,53.215,182.5189,120.2167,239.8916,0.00047028,7.206e-05,0.0,0 STARLINK-3981,1 52687U 22053AH  23113.62780441  .00007206  00000-0  47028-3 0  9991,2 52687  53.2150 182.5189 0000912 120.2167 239.8916 15.08846419 52079,6917.861,95.437,540.357,539.095,0.0
52687.0,STARLINK-3981,PAYLOAD,2023-04-24 16:30:10,15.08914465,0.000131,53.2151,177.7592,89.5592,270.555,0.0025575,0.00040733,0.0,0 STARLINK-3981,1 52687U 22053AH  23114.68762684  .00040733  00000-0  25575-2 0  9991,2 52687  53.2151 177.7592 0001310  89.5592 270.5550 15.08914465 52237,6917.653,95.433,540.424,538.612,0.0
52687.0,STARLINK-3981,PAYLOAD,2023-04-25 09:59:27,15.08781798,0.0001389,53.2146,174.4892,117.879,242.2343,0.00033069,4.971e-05,0.0,0 STARLINK-3981,1 52687U 22053AH  23115.41629516  .00004971  00000-0  33069-3 0  9991,2 52687  53.2146 174.4892 0001389 117.8790 242.2343 15.08781798 52719,6918.058,95.441,540.884,538.962,0.0
